IRIDIUM 135             
1 43070U 17083A   26182.87272237  .00000007  00000+0 -46788-5 0  9995
2 43070  86.3975 315.8757 0002088  92.9361 267.2074 14.34217468446257
IRIDIUM 138             
1 43071U 17083B   26182.89809263  .00000027  00000+0  25066-5 0  9990
2 43071  86.3992 315.5626 0002179  88.1056 272.0389 14.34217628446248
IRIDIUM 116             
1 43072U 17083C   26182.79661135 -.00000001  00000+0 -74563-5 0  9994
2 43072  86.3973 315.8934 0002148 101.5613 258.5825 14.34217403446265
IRIDIUM 130             
1 43073U 17083D   26182.90443412  .00000047  00000+0  98791-5 0  9991
2 43073  86.3987 316.1247 0002051  98.3734 261.7694 14.34217543446223
IRIDIUM 151             
1 43074U 17083E   26182.87906435  .00000051  00000+0  11206-4 0  9997
2 43074  86.3975 315.9169 0002123  94.2416 265.9023 14.34217902446246
IRIDIUM 134             
1 43075U 17083F   26182.91711912  .00000167  00000+0  52593-4 0  9999
2 43075  86.3981 315.9089 0002177  94.9838 265.1606 14.34217825446219
IRIDIUM 137             
1 43076U 17083G   26182.92980621  .00000023  00000+0  10448-5 0  9991
2 43076  86.3982 315.9967 0002585  99.3948 260.7540 14.34217660446282
IRIDIUM 141             
1 43077U 17083H   26182.85369424  .00000041  00000+0  74124-5 0  9997
2 43077  86.3978 315.8583 0002199  91.6349 268.5099 14.34217747446272
IRIDIUM 153             
1 43078U 17083J   26182.66633598  .00000043  00000+0  84470-5 0  9990
2 43078  86.3969 284.4174 0002173  92.0153 268.1292 14.34217737447350
IRIDIUM 131             
1 43079U 17083K   26182.91077768  .00000162  00000+0  50816-4 0  9998
2 43079  86.3983 316.0213 0002236  92.9328 267.2124 14.34218172446218
IRIDIUM 144             
1 43249U 18030A   26182.67267809  .00000117  00000+0  34779-4 0  9990
2 43249  86.3965 284.3435 0002255  98.1483 261.9969 14.34217332432211
IRIDIUM 149             
1 43250U 18030B   26182.74879017 -.00000013  00000+0 -11592-4 0  9995
2 43250  86.3959 284.2784 0002198  93.8597 266.2850 14.34217336432240
IRIDIUM 157             
1 43251U 18030C   26182.69804912  .00000160  00000+0  50030-4 0  9993
2 43251  86.3965 284.3529 0002235  94.6412 265.5039 14.34217962432216
IRIDIUM 140             
1 43252U 18030D   26182.29846578  .00000069  00000+0  17702-4 0  9991
2 43252  86.3965 284.5328 0002193  95.5759 264.5687 14.34217544432217
IRIDIUM 145             
1 43253U 18030E   26182.84391727  .00000243  00000+0  79671-4 0  9991
2 43253  86.3962 284.2755 0002429 105.5444 254.6020 14.34214398432227
IRIDIUM 146             
1 43254U 18030F   26182.75513221  .00000206  00000+0  66399-4 0  9999
2 43254  86.3963 284.3259 0002143  97.8359 262.3080 14.34218259432222
IRIDIUM 148             
1 43255U 18030G   26182.79318844 -.00000003  00000+0 -79906-5 0  9994
2 43255  86.3963 284.3538 0002240  95.3769 264.7683 14.34217399432262
IRIDIUM 142             
1 43256U 18030H   26182.90101223  .00000004  00000+0 -57138-5 0  9992
2 43256  86.3958 284.1970 0002179  99.4842 260.6600 14.34217482432248
IRIDIUM 150             
1 43257U 18030J   26182.65999369  .00000145  00000+0  44546-4 0  9994
2 43257  86.3967 284.4147 0002189  96.5117 263.6328 14.34217711432236
IRIDIUM 143             
1 43258U 18030K   26182.71072997  .00000256  00000+0  84203-4 0  9998
2 43258  86.3970 284.4868 0002250  98.8899 261.2552 14.34216958432170
IRIDIUM 161             
1 43478U 18047C   26182.24315511  .00000385  00000+0  10860-3 0  9990
2 43478  86.4477  82.5943 0002462  80.3323 279.8156 14.43280316427168
IRIDIUM 152             
1 43479U 18047D   26182.96253362 -.00000415  00000+0 -15539-3 0  9999
2 43479  86.3953  82.1545 0002166  80.0685 280.0756 14.34213121424606
IRIDIUM 147             
1 43480U 18047E   26182.96886426  .00000213  00000+0  68855-4 0  9998
2 43480  86.3953  82.1574 0002222  87.3695 272.7755 14.34219907424609
IRIDIUM 110             
1 43481U 18047F   26182.97521166  .00000058  00000+0  13529-4 0  9992
2 43481  86.3954  82.2470 0002384  76.6732 283.4730 14.34217840424593
IRIDIUM 162             
1 43482U 18047G   26182.72216753  .00000335  00000+0  93672-4 0  9994
2 43482  86.4474  82.2847 0002236  83.1113 277.0342 14.43282053427221
IRIDIUM 160             
1 43569U 18061A   26182.92104703  .00000016  00000+0 -12891-5 0  9991
2 43569  86.3948  50.6355 0002137  85.6419 274.5021 14.34217631415482
IRIDIUM 166             
1 43570U 18061B   26182.87664905  .00000208  00000+0  67183-4 0  9997
2 43570  86.3949  50.6047 0002208  88.6453 271.4996 14.34218088415500
IRIDIUM 158             
1 43571U 18061C   26182.91470446  .00000010  00000+0 -33438-5 0  9997
2 43571  86.3944  50.5982 0002004  83.9988 276.1436 14.34217418415471
IRIDIUM 165             
1 43572U 18061D   26182.38192681  .00000064  00000+0  15821-4 0  9994
2 43572  86.3949  50.8681 0002158  89.9047 270.2396 14.34217738415428
IRIDIUM 155             
1 43573U 18061E   26182.90201874  .00000009  00000+0 -39704-5 0  9995
2 43573  86.3944  50.5186 0001925  85.4145 274.7270 14.34217614415469
