OBJECT_NAME,OBJECT_ID,EPOCH,MEAN_MOTION,ECCENTRICITY,INCLINATION,RA_OF_ASC_NODE,ARG_OF_PERICENTER,MEAN_ANOMALY,EPHEMERIS_TYPE,CLASSIFICATION_TYPE,NORAD_CAT_ID,ELEMENT_SET_NO,REV_AT_EPOCH,BSTAR,MEAN_MOTION_DOT,MEAN_MOTION_DDOT
IRIDIUM 135,2017-083A,2026-07-01T20:56:43.212768,14.34217468,.00020882,86.3975,315.8757,92.9361,267.2074,0,U,43070,999,44625,-.4678833E-5,.7E-7,0
IRIDIUM 138,2017-083B,2026-07-01T21:33:15.203232,14.34217628,.00021793,86.3992,315.5626,88.1056,272.0389,0,U,43071,999,44624,.2506572E-5,.27E-6,0
IRIDIUM 116,2017-083C,2026-07-01T19:07:07.220640,14.34217403,.00021482,86.3973,315.8934,101.5613,258.5825,0,U,43072,999,44626,-.7456272E-5,-.1E-7,0
IRIDIUM 130,2017-083D,2026-07-01T21:42:23.107968,14.34217543,.00020512,86.3987,316.1247,98.3734,261.7694,0,U,43073,999,44622,.9879108E-5,.47E-6,0
IRIDIUM 151,2017-083E,2026-07-01T21:05:51.159840,14.34217902,.00021233,86.3975,315.9169,94.2416,265.9023,0,U,43074,999,44624,.11205776E-4,.51E-6,0
IRIDIUM 134,2017-083F,2026-07-01T22:00:39.091968,14.34217825,.00021776,86.3981,315.9089,94.9838,265.1606,0,U,43075,999,44621,.52593009E-4,.167E-5,0
IRIDIUM 137,2017-083G,2026-07-01T22:18:55.256544,14.34217660,.00025858,86.3982,315.9967,99.3948,260.7540,0,U,43076,999,44628,.1044818E-5,.23E-6,0
IRIDIUM 141,2017-083H,2026-07-01T20:29:19.182336,14.34217747,.00021991,86.3978,315.8583,91.6349,268.5099,0,U,43077,999,44627,.7412372E-5,.41E-6,0
IRIDIUM 153,2017-083J,2026-07-01T15:59:31.428672,14.34217737,.00021739,86.3969,284.4174,92.0153,268.1292,0,U,43078,999,44735,.8446987E-5,.43E-6,0
IRIDIUM 131,2017-083K,2026-07-01T21:51:31.191552,14.34218172,.00022366,86.3983,316.0213,92.9328,267.2124,0,U,43079,999,44621,.50815921E-4,.162E-5,0
IRIDIUM 144,2018-030A,2026-07-01T16:08:39.386976,14.34217332,.00022551,86.3965,284.3435,98.1483,261.9969,0,U,43249,999,43221,.34778863E-4,.117E-5,0
IRIDIUM 149,2018-030B,2026-07-01T17:58:15.470688,14.34217336,.00021987,86.3959,284.2784,93.8597,266.2850,0,U,43250,999,43224,-.11591502E-4,-.13E-6,0
IRIDIUM 157,2018-030C,2026-07-01T16:45:11.443968,14.34217962,.00022359,86.3965,284.3529,94.6412,265.5039,0,U,43251,999,43221,.50029923E-4,.16E-5,0
IRIDIUM 140,2018-030D,2026-07-01T07:09:47.443392,14.34217544,.00021935,86.3965,284.5328,95.5759,264.5687,0,U,43252,999,43221,.1770195E-4,.69E-6,0
IRIDIUM 145,2018-030E,2026-07-01T20:15:14.452128,14.34214398,.00024293,86.3962,284.2755,105.5444,254.6020,0,U,43253,999,43222,.79671491E-4,.243E-5,0
IRIDIUM 146,2018-030F,2026-07-01T18:07:23.422944,14.34218259,.00021435,86.3963,284.3259,97.8359,262.3080,0,U,43254,999,43222,.66399412E-4,.206E-5,0
IRIDIUM 148,2018-030G,2026-07-01T19:02:11.481216,14.34217399,.000224,86.3963,284.3538,95.3769,264.7683,0,U,43255,999,43226,-.7990563E-5,-.3E-7,0
IRIDIUM 142,2018-030H,2026-07-01T21:37:27.456672,14.34217482,.00021799,86.3958,284.1970,99.4842,260.6600,0,U,43256,999,43224,-.571376E-5,.4E-7,0
IRIDIUM 150,2018-030J,2026-07-01T15:50:23.454816,14.34217711,.00021891,86.3967,284.4147,96.5117,263.6328,0,U,43257,999,43223,.44546396E-4,.145E-5,0
IRIDIUM 143,2018-030K,2026-07-01T17:03:27.069408,14.34216958,.000225,86.3970,284.4868,98.8899,261.2552,0,U,43258,999,43217,.84203054E-4,.256E-5,0
IRIDIUM 161,2018-047C,2026-07-01T05:50:08.601504,14.43280316,.00024624,86.4477,82.5943,80.3323,279.8156,0,U,43478,999,42716,.10859561E-3,.385E-5,0
IRIDIUM 152,2018-047D,2026-07-01T23:06:02.904768,14.34213121,.00021664,86.3953,82.1545,80.0685,280.0756,0,U,43479,999,42460,-.15538927E-3,-.415E-5,0
IRIDIUM 147,2018-047E,2026-07-01T23:15:09.872064,14.34219907,.00022225,86.3953,82.1574,87.3695,272.7755,0,U,43480,999,42460,.68855413E-4,.213E-5,0
IRIDIUM 110,2018-047F,2026-07-01T23:24:18.287424,14.34217840,.00023845,86.3954,82.2470,76.6732,283.4730,0,U,43481,999,42459,.13528778E-4,.58E-6,0
IRIDIUM 162,2018-047G,2026-07-01T17:19:55.274592,14.43282053,.00022366,86.4474,82.2847,83.1113,277.0342,0,U,43482,999,42722,.9367237E-4,.335E-5,0
IRIDIUM 160,2018-061A,2026-07-01T22:06:18.463392,14.34217631,.00021376,86.3948,50.6355,85.6419,274.5021,0,U,43569,999,41548,-.1289104E-5,.16E-6,0
IRIDIUM 166,2018-061B,2026-07-01T21:02:22.477920,14.34218088,.00022084,86.3949,50.6047,88.6453,271.4996,0,U,43570,999,41550,.67183487E-4,.208E-5,0
IRIDIUM 158,2018-061C,2026-07-01T21:57:10.465344,14.34217418,.00020041,86.3944,50.5982,83.9988,276.1436,0,U,43571,999,41547,-.3343848E-5,.1E-6,0
IRIDIUM 165,2018-061D,2026-07-01T09:09:58.476384,14.34217738,.00021584,86.3949,50.8681,89.9047,270.2396,0,U,43572,999,41542,.15820723E-4,.64E-6,0
IRIDIUM 155,2018-061E,2026-07-01T21:38:54.419136,14.34217614,.00019251,86.3944,50.5186,85.4145,274.7270,0,U,43573,999,41546,-.3970359E-5,.9E-7,0
